COMMENT,ORIGINATOR,NORAD_CAT_ID,OBJECT_NAME,OBJECT_TYPE,CLASSIFICATION_TYPE,INTLDES,EPOCH,EPOCH_MICROSECONDS,MEAN_MOTION,ECCENTRICITY,INCLINATION,RA_OF_ASC_NODE,ARG_OF_PERICENTER,MEAN_ANOMALY,EPHEMERIS_TYPE,ELEMENT_SET_NO,REV_AT_EPOCH,BSTAR,MEAN_MOTION_DOT,MEAN_MOTION_DDOT,FILE,TLE_LINE0,TLE_LINE1,TLE_LINE2,OBJECT_ID,OBJECT_NUMBER,SEMIMAJOR_AXIS,PERIOD,APOGEE,PERIGEE,DECAYED
"GENERATED VIA SPACETRACK.ORG API","18 SPCS","48890","SPACEBEE-104","PAYLOAD","U","21059M","2022-04-05 19:51:13","850496","15.14280076","0.0008421","97.5435","225.8684","5.6998","354.4328","0","999","4293","0.00067954","0.00012389","0","3389912","0 SPACEBEE-104","1 48890U 21059M   22095.82724364  .00012389  00000-0  67954-3 0  9997","2 48890  97.5435 225.8684 0008421   5.6998 354.4328 15.14280076 42932","2021-059M","48890","6901.302","95.095","528.979","517.355","0"
"GENERATED VIA SPACETRACK.ORG API","18 SPCS","48890","SPACEBEE-104","PAYLOAD","U","21059M","2022-04-06 08:32:27","933504","15.14294755","0.0008379","97.5437","226.3923","4.0103","356.1194","0","999","4301","0.00068752","0.00012541","0","3390609","0 SPACEBEE-104","1 48890U 21059M   22096.35587886  .00012541  00000-0  68752-3 0  9999","2 48890  97.5437 226.3923 0008379   4.0103 356.1194 15.14294755 43018","2021-059M","48890","6901.257","95.094","528.905","517.340","0"
"GENERATED VIA SPACETRACK.ORG API","18 SPCS","48890","SPACEBEE-104","PAYLOAD","U","21059M","2022-04-06 08:32:27","933504","15.14294755","0.0008379","97.5437","226.3923","4.0103","356.1194","0","999","4301","0.00068752","0.00012541","0","3390907","0 SPACEBEE-104","1 48890U 21059M   22096.35587886  .00012541  00000-0  68752-3 0  9999","2 48890  97.5437 226.3923 0008379   4.0103 356.1194 15.14294755 43018","2021-059M","48890","6901.257","95.094","528.905","517.340","0"
"GENERATED VIA SPACETRACK.ORG API","18 SPCS","48890","SPACEBEE-104","PAYLOAD","U","21059M","2022-04-06 21:13:41","660544","15.14307354","0.0008314","97.5437","226.9162","2.1744","357.9523","0","999","4309","0.00067594","0.00012332","0","3391320","0 SPACEBEE-104","1 48890U 21059M   22096.88450996  .00012332  00000-0  67594-3 0  9999","2 48890  97.5437 226.9162 0008314   2.1744 357.9523 15.14307354 43091","2021-059M","48890","6901.219","95.093","528.822","517.347","0"
"GENERATED VIA SPACETRACK.ORG API","18 SPCS","48890","SPACEBEE-104","PAYLOAD","U","21059M","2022-04-07 08:19:45","831936","15.1431767","0.0008268","97.5435","227.375","0.5832","359.5408","0","999","4316","0.00060848","0.00011096","0","3391885","0 SPACEBEE-104","1 48890U 21059M   22097.34705824  .00011096  00000-0  60848-3 0  9995","2 48890  97.5435 227.3750 0008268   0.5832 359.5408 15.14317670 43165","2021-059M","48890","6901.188","95.092","528.759","517.347","0"
"GENERATED VIA SPACETRACK.ORG API","18 SPCS","48890","SPACEBEE-104","PAYLOAD","U","21059M","2022-04-07 19:25:49","682784","15.14331861","0.0008237","97.5434","227.8335","358.7169","1.404","0","999","4323","0.0007407","0.00013531","0","3392361","0 SPACEBEE-104","1 48890U 21059M   22097.80960281  .00013531  00000-0  74070-3 0  9994","2 48890  97.5434 227.8335 0008237 358.7169   1.4040 15.14331861 43236","2021-059M","48890","6901.145","95.091","528.694","517.325","0"
"GENERATED VIA SPACETRACK.ORG API","18 SPCS","48890","SPACEBEE-104","PAYLOAD","U","21059M","2022-04-07 21:00:58","768416","15.14333977","0.0008241","97.5434","227.899","358.4752","1.6454","0","999","4324","0.00074728","0.00013653","0","3392478","0 SPACEBEE-104","1 48890U 21059M   22097.87568019  .00013653  00000-0  74728-3 0  9999","2 48890  97.5434 227.8990 0008241 358.4752   1.6454 15.14333977 43245","2021-059M","48890","6901.138","95.091","528.691","517.316","0"
"GENERATED VIA SPACETRACK.ORG API","18 SPCS","48890","SPACEBEE-104","PAYLOAD","U","21059M","2022-04-08 14:27:38","400192","15.14350489","0.0008196","97.5433","228.6198","355.6745","4.4415","0","999","4335","0.00064519","0.00011781","0","3393517","0 SPACEBEE-104","1 48890U 21059M   22098.60252778  .00011781  00000-0  64519-3 0  9990","2 48890  97.5433 228.6198 0008196 355.6745   4.4415 15.14350489 43350","2021-059M","48890","6901.088","95.090","528.609","517.297","0"
"GENERATED VIA SPACETRACK.ORG API","18 SPCS","48890","SPACEBEE-104","PAYLOAD","U","21059M","2022-04-08 20:48:14","455008","15.14356058","0.0008185","97.5431","228.8818","354.6364","5.4779","0","999","4339","0.00058158","0.00010613","0","3393990","0 SPACEBEE-104","1 48890U 21059M   22098.86683397  .00010613  00000-0  58158-3 0  9998","2 48890  97.5431 228.8818 0008185 354.6364   5.4779 15.14356058 43399","2021-059M","48890","6901.071","95.090","528.585","517.288","0"
"GENERATED VIA SPACETRACK.ORG API","18 SPCS","48890","SPACEBEE-104","PAYLOAD","U","21059M","2022-04-08 20:48:14","455008","15.14356058","0.0008185","97.5431","228.8818","354.6364","5.4779","0","999","4339","0.00058158","0.00010613","0","3394126","0 SPACEBEE-104","1 48890U 21059M   22098.86683397  .00010613  00000-0  58158-3 0  9998","2 48890  97.5431 228.8818 0008185 354.6364   5.4779 15.14356058 43399","2021-059M","48890","6901.071","95.090","528.585","517.288","0"
"GENERATED VIA SPACETRACK.ORG API","18 SPCS","48890","SPACEBEE-104","PAYLOAD","U","21059M","2022-04-09 07:54:17","308800","15.1436781","0.0008143","97.5431","229.3405","352.7647","7.3465","0","999","4346","0.00060365","0.00011023","0","3394949","0 SPACEBEE-104","1 48890U 21059M   22099.32936700  .00011023  00000-0  60365-3 0  9998","2 48890  97.5431 229.3405 0008143 352.7647   7.3465 15.14367810 43463","2021-059M","48890","6901.036","95.089","528.520","517.281","0"
"GENERATED VIA SPACETRACK.ORG API","18 SPCS","48890","SPACEBEE-104","PAYLOAD","U","21059M","2022-04-09 22:10:37","709184","15.1438288","0.0008185","97.5429","229.9298","350.2202","9.8869","0","999","4355","0.00066606","0.00012176","0","3395351","0 SPACEBEE-104","1 48890U 21059M   22099.92404756  .00012176  00000-0  66606-3 0  9999","2 48890  97.5429 229.9298 0008185 350.2202   9.8869 15.14382880 43551","2021-059M","48890","6900.990","95.088","528.503","517.206","0"
"GENERATED VIA SPACETRACK.ORG API","18 SPCS","48890","SPACEBEE-104","PAYLOAD","U","21059M","2022-04-09 22:10:37","709184","15.1438288","0.0008185","97.5429","229.9298","350.2202","9.8869","0","999","4355","0.00066606","0.00012176","0","3395503","0 SPACEBEE-104","1 48890U 21059M   22099.92404756  .00012176  00000-0  66606-3 0  9999","2 48890  97.5429 229.9298 0008185 350.2202   9.8869 15.14382880 43551","2021-059M","48890","6900.990","95.088","528.503","517.206","0"
"GENERATED VIA SPACETRACK.ORG API","18 SPCS","48890","SPACEBEE-104","PAYLOAD","U","21059M","2022-04-10 14:02:06","411552","15.1440193","0.0008179","97.5428","230.5848","347.6368","12.4661","0","999","4365","0.00077553","0.000142","0","3396223","0 SPACEBEE-104","1 48890U 21059M   22100.58479643  .00014200  00000-0  77553-3 0  9994","2 48890  97.5428 230.5848 0008179 347.6368  12.4661 15.14401930 43654","2021-059M","48890","6900.932","95.087","528.441","517.153","0"
"GENERATED VIA SPACETRACK.ORG API","18 SPCS","48890","SPACEBEE-104","PAYLOAD","U","21059M","2022-04-10 20:22:41","711232","15.14407176","0.0008183","97.5428","230.8467","346.5067","13.5944","0","999","4369","0.00067244","0.00012302","0","3396586","0 SPACEBEE-104","1 48890U 21059M   22100.84909388  .00012302  00000-0  67244-3 0  9994","2 48890  97.5428 230.8467 0008183 346.5067  13.5944 15.14407176 43691","2021-059M","48890","6900.916","95.087","528.428","517.134","0"
"GENERATED VIA SPACETRACK.ORG API","18 SPCS","48890","SPACEBEE-104","PAYLOAD","U","21059M","2022-04-11 04:18:25","661952","15.1441692","0.0008148","97.5431","231.1744","345.1853","14.9139","0","999","4374","0.00071264","0.00013046","0","3396713","0 SPACEBEE-104","1 48890U 21059M   22101.17946368  .00013046  00000-0  71264-3 0  9993","2 48890  97.5431 231.1744 0008148 345.1853  14.9139 15.14416920 43740","2021-059M","48890","6900.886","95.086","528.374","517.128","0"
"GENERATED VIA SPACETRACK.ORG API","18 SPCS","48890","SPACEBEE-104","PAYLOAD","U","21059M","2022-04-11 13:49:18","227424","15.14425984","0.0008121","97.5431","231.5674","343.9961","16.1012","0","999","4380","0.00066014","0.00012082","0","3397378","0 SPACEBEE-104","1 48890U 21059M   22101.57590541  .00012082  00000-0  66014-3 0  9991","2 48890  97.5431 231.5674 0008121 343.9961  16.1012 15.14425984 43804","2021-059M","48890","6900.859","95.086","528.328","517.120","0"
"GENERATED VIA SPACETRACK.ORG API","18 SPCS","48890","SPACEBEE-104","PAYLOAD","U","21059M","2022-04-11 20:09:53","158176","15.14431091","0.0008124","97.5433","231.8295","343.0651","17.0308","0","999","4384","0.00057304","0.00010478","0","3397723","0 SPACEBEE-104","1 48890U 21059M   22101.84019859  .00010478  00000-0  57304-3 0  9998","2 48890  97.5433 231.8295 0008124 343.0651  17.0308 15.14431091 43846","2021-059M","48890","6900.843","95.085","528.315","517.102","0"
"GENERATED VIA SPACETRACK.ORG API","18 SPCS","48890","SPACEBEE-104","PAYLOAD","U","21059M","2022-04-12 07:15:54","124992","15.14443189","0.0008095","97.5435","232.2881","341.6059","18.4879","0","999","4391","0.00068599","0.00012564","0","3398236","0 SPACEBEE-104","1 48890U 21059M   22102.30270978  .00012564  00000-0  68599-3 0  9997","2 48890  97.5435 232.2881 0008095 341.6059  18.4879 15.14443189 43914","2021-059M","48890","6900.807","95.084","528.258","517.085","0"
"GENERATED VIA SPACETRACK.ORG API","18 SPCS","48890","SPACEBEE-104","PAYLOAD","U","21059M","2022-04-12 07:15:54","124992","15.14443189","0.0008095","97.5435","232.2881","341.6059","18.4879","0","999","4391","0.00068599","0.00012564","0","3398537","0 SPACEBEE-104","1 48890U 21059M   22102.30270978  .00012564  00000-0  68599-3 0  9997","2 48890  97.5435 232.2881 0008095 341.6059  18.4879 15.14443189 43914","2021-059M","48890","6900.807","95.084","528.258","517.085","0"
